NORAD_CAT_ID,OBJECT_NAME,OBJECT_TYPE,EPOCH,MEAN_MOTION,ECCENTRICITY,INCLINATION,RA_OF_ASC_NODE,ARG_OF_PERICENTER,MEAN_ANOMALY,BSTAR,MEAN_MOTION_DOT,MEAN_MOTION_DDOT,TLE_LINE0,TLE_LINE1,TLE_LINE2,SEMIMAJOR_AXIS,PERIOD,APOGEE,PERIGEE,DECAYED
53797.0,STARLINK-4723,PAYLOAD,2023-04-14 01:30:00,15.0884869,0.0001164,53.2181,355.0252,76.4525,283.6597,0.00021197,3.088e-05,0.0,0 STARLINK-4723,1 53797U 22111AA  23104.06250012  .00003088  00000-0  21197-3 0  9996,2 53797  53.2181 355.0252 0001164  76.4525 283.6597 15.08848690 33562,6917.854,95.437,540.524,538.914,0.0
53797.0,STARLINK-4723,PAYLOAD,2023-04-15 01:20:47,15.08847078,0.0001719,53.218,350.5645,64.9623,295.1548,0.0002383,3.507e-05,0.0,0 STARLINK-4723,1 53797U 22111AA  23105.05610441  .00003507  00000-0  23830-3 0  9994,2 53797  53.2180 350.5645 0001719  64.9623 295.1548 15.08847078 32926,6917.859,95.437,540.913,538.535,0.0
53797.0,STARLINK-4723,PAYLOAD,2023-04-15 22:00:48,15.08839009,0.0001269,53.2177,346.6982,91.6545,268.4592,0.00015113,2.118e-05,0.0,0 STARLINK-4723,1 53797U 22111AA  23105.91722889  .00002118  00000-0  15113-3 0  9991,2 53797  53.2177 346.6982 0001269  91.6545 268.4592 15.08839009 33054,6917.883,95.438,540.626,538.871,0.0
53797.0,STARLINK-4723,PAYLOAD,2023-04-16 01:11:34,15.0884635,0.0001207,53.2176,346.1034,93.2068,266.9062,0.00029102,4.348e-05,0.0,0 STARLINK-4723,1 53797U 22111AA  23106.04970621  .00004348  00000-0  29102-3 0  9995,2 53797  53.2176 346.1034 0001207  93.2068 266.9062 15.08846350 33867,6917.861,95.437,540.561,538.891,0.0
53797.0,STARLINK-4723,PAYLOAD,2023-04-16 21:51:35,15.08840297,0.0001132,53.2173,342.2375,104.4194,255.6924,0.00014434,2.01e-05,0.0,0 STARLINK-4723,1 53797U 22111AA  23106.91083077  .00002010  00000-0  14434-3 0  9997,2 53797  53.2173 342.2375 0001132 104.4194 255.6924 15.08840297 33991,6917.879,95.438,540.528,538.961,0.0
53797.0,STARLINK-4723,PAYLOAD,2023-04-17 01:02:22,15.08842098,0.000107,53.2169,341.6429,99.9126,260.1986,0.00027642,4.114e-05,0.0,0 STARLINK-4723,1 53797U 22111AA  23107.04331086  .00004114  00000-0  27642-3 0  9990,2 53797  53.2169 341.6429 0001070  99.9126 260.1986 15.08842098 34017,6917.874,95.437,540.479,538.999,0.0
53797.0,STARLINK-4723,PAYLOAD,2023-04-17 21:42:23,15.08840507,0.0001034,53.2159,337.7784,90.4811,269.63,0.00022219,3.25e-05,0.0,0 STARLINK-4723,1 53797U 22111AA  23107.90443548  .00003250  00000-0  22219-3 0  9997,2 53797  53.2159 337.7784 0001034  90.4811 269.6300 15.08840507 34144,6917.879,95.438,540.459,539.029,0.0
53797.0,STARLINK-4723,PAYLOAD,2023-04-18 00:53:09,15.08845458,0.0001066,53.2166,337.1824,97.236,262.8754,0.00025636,3.795e-05,0.0,0 STARLINK-4723,1 53797U 22111AA  23108.03691261  .00003795  00000-0  25636-3 0  9999,2 53797  53.2166 337.1824 0001066  97.2360 262.8754 15.08845458 34160,6917.864,95.437,540.466,538.991,0.0
53797.0,STARLINK-4723,PAYLOAD,2023-04-19 00:43:56,15.08848829,0.0001066,53.2165,332.7226,95.8551,264.2563,0.00028138,4.194e-05,0.0,0 STARLINK-4723,1 53797U 22111AA  23109.03051255  .00004194  00000-0  28138-3 0  9997,2 53797  53.2165 332.7226 0001066  95.8551 264.2563 15.08848829 33520,6917.853,95.437,540.456,538.981,0.0
53797.0,STARLINK-4723,PAYLOAD,2023-04-20 00:34:43,15.08840593,0.0001156,53.2164,328.2602,99.3291,260.7832,8.7728e-05,1.109e-05,0.0,0 STARLINK-4723,1 53797U 22111AA  23110.02411485  .00001109  00000-0  87728-4 0  9997,2 53797  53.2164 328.2602 0001156  99.3291 260.7832 15.08840593 34461,6917.879,95.438,540.543,538.944,0.0
53797.0,STARLINK-4723,PAYLOAD,2023-04-20 21:14:44,15.08837986,0.0001102,53.2174,324.3936,101.2223,258.8893,-1.5487e-05,-5.34e-06,0.0,0 STARLINK-4723,1 53797U 22111AA  23110.88523975 -.00000534  00000-0 -15487-4 0  9995,2 53797  53.2174 324.3936 0001102 101.2223 258.8893 15.08837986 33802,6917.887,95.438,540.514,538.989,0.0
53797.0,STARLINK-4723,PAYLOAD,2023-04-21 06:47:03,15.08841205,0.0001077,53.2174,322.6138,100.8204,259.291,3.3752e-05,2.49e-06,0.0,0 STARLINK-4723,1 53797U 22111AA  23111.28267873  .00000249  00000-0  33752-4 0  9998,2 53797  53.2174 322.6138 0001077 100.8204 259.2910 15.08841205 34650,6917.877,95.437,540.487,538.997,0.0
53797.0,STARLINK-4723,PAYLOAD,2023-04-21 21:05:31,15.08851215,0.0001048,53.2163,319.9377,111.5275,248.5829,0.00017535,2.505e-05,0.0,0 STARLINK-4723,1 53797U 22111AA  23111.87883288  .00002505  00000-0  17535-3 0  9994,2 53797  53.2163 319.9377 0001048 111.5275 248.5829 15.08851215 33951,6917.846,95.437,540.436,538.986,0.0
53797.0,STARLINK-4723,PAYLOAD,2023-04-22 12:59:22,15.08842643,0.0001216,53.2167,316.9636,88.7632,271.35,0.00016209,2.293e-05,0.0,0 STARLINK-4723,1 53797U 22111AA  23112.54123734  .00002293  00000-0  16209-3 0  9993,2 53797  53.2167 316.9636 0001216  88.7632 271.3500 15.08842643 34843,6917.872,95.437,540.579,538.896,0.0
53797.0,STARLINK-4723,PAYLOAD,2023-04-22 14:34:46,15.0884027,0.0001203,53.2175,316.6656,91.7309,268.3821,5.1073e-05,5.25e-06,0.0,0 STARLINK-4723,1 53797U 22111AA  23112.60747843  .00000525  00000-0  51073-4 0  9998,2 53797  53.2175 316.6656 0001203  91.7309 268.3821 15.08840270 34062,6917.88,95.438,540.577,538.912,0.0
53797.0,STARLINK-4723,PAYLOAD,2023-04-23 12:50:10,15.08840481,9.8e-05,53.2181,312.5044,91.0664,269.0441,-8.1501e-06,-4.17e-06,0.0,0 STARLINK-4723,1 53797U 22111AA  23113.53483854 -.00000417  00000-0 -81501-5 0  9992,2 53797  53.2181 312.5044 0000980  91.0664 269.0441 15.08840481 34995,6917.879,95.438,540.422,539.066,0.0
53797.0,STARLINK-4723,PAYLOAD,2023-04-23 22:22:28,15.08847079,9.97e-05,53.2175,310.7195,87.2905,272.8201,6.6997e-05,7.79e-06,0.0,0 STARLINK-4723,1 53797U 22111AA  23113.93227533  .00000779  00000-0  66997-4 0  9996,2 53797  53.2175 310.7195 0000997  87.2905 272.8201 15.08847079 34264,6917.859,95.437,540.413,539.034,0.0
53797.0,STARLINK-4723,PAYLOAD,2023-04-25 06:10:09,15.08886255,0.000117,53.2171,304.7711,70.9351,289.1767,0.00074953,0.00011676,0.0,0 STARLINK-4723,1 53797U 22111AA  23115.25705033  .00011676  00000-0  74953-3 0  9997,2 53797  53.2171 304.7711 0001170  70.9351 289.1767 15.08886255 35252,6917.739,95.435,540.413,538.795,0.0
53797.0,STARLINK-4723,PAYLOAD,2023-04-26 12:22:33,15.08822261,5.62e-05,53.2165,299.1207,138.0406,222.0629,0.0005756,8.88e-05,0.0,0 STARLINK-4723,1 53797U 22111AA  23116.51566323  .00008880  00000-0  57560-3 0  9992,2 53797  53.2165 299.1207 0000562 138.0406 222.0629 15.08822261 35444,6917.935,95.439,540.188,539.411,0.0
53797.0,STARLINK-4723,PAYLOAD,2023-04-26 18:44:05,15.08836644,7.4e-05,53.2166,297.9313,113.6773,246.4297,0.0014496,0.00022856,0.0,0 STARLINK-4723,1 53797U 22111AA  23116.78061627  .00022856  00000-0  14496-2 0  9997,2 53797  53.2166 297.9313 0000740 113.6773 246.4297 15.08836644 35488,6917.891,95.438,540.268,539.244,0.0
53797.0,STARLINK-4723,PAYLOAD,2023-04-27 12:13:19,15.08860033,0.0001,53.2172,294.6635,113.3535,246.7562,0.00053721,8.277e-05,0.0,0 STARLINK-4723,1 53797U 22111AA  23117.50925154  .00008277  00000-0  53721-3 0  9998,2 53797  53.2172 294.6635 0001000 113.3535 246.7562 15.08860033 35598,6917.819,95.436,540.376,538.992,0.0
53797.0,STARLINK-4723,PAYLOAD,2023-04-27 13:48:42,15.08846953,0.000101,53.2175,294.3651,118.4739,241.6355,0.0010943,0.00017174,0.0,0 STARLINK-4723,1 53797U 22111AA  23117.57549710  .00017174  00000-0  10943-2 0  9999,2 53797  53.2175 294.3651 0001010 118.4739 241.6355 15.08846953 34812,6917.859,95.437,540.423,539.025,0.0
53797.0,STARLINK-4723,PAYLOAD,2023-04-28 12:04:05,15.08853027,0.0001022,53.2181,290.2016,83.3614,276.7494,-1.6653e-05,-5.53e-06,0.0,0 STARLINK-4723,1 53797U 22111AA  23118.50284228 -.00000553  00000-0 -16653-4 0  9994,2 53797  53.2181 290.2016 0001022  83.3614 276.7494 15.08853027 34952,6917.841,95.437,540.413,538.999,0.0
53797.0,STARLINK-4723,PAYLOAD,2023-04-29 03:57:57,15.08840105,7.96e-05,53.2181,287.2296,114.9336,245.1739,-0.00013171,-2.383e-05,0.0,0 STARLINK-4723,1 53797U 22111AA  23119.16524480 -.00002383  00000-0 -13171-3 0  9998,2 53797  53.2181 287.2296 0000796 114.9336 245.1739 15.08840105 35054,6917.88,95.438,540.296,539.194,0.0
53797.0,STARLINK-4723,PAYLOAD,2023-04-29 11:54:52,15.08837508,5.15e-05,53.2195,285.7434,102.8721,257.2329,-0.00017197,-3.023e-05,0.0,0 STARLINK-4723,1 53797U 22111AA  23119.49644492 -.00003023  00000-0 -17197-3 0  9994,2 53797  53.2195 285.7434 0000515 102.8721 257.2329 15.08837508 35893,6917.888,95.438,540.109,539.397,0.0
53797.0,STARLINK-4723,PAYLOAD,2023-04-29 19:51:48,15.08849857,5.48e-05,53.2164,284.2538,81.0028,279.1026,0.00014853,2.078e-05,0.0,0 STARLINK-4723,1 53797U 22111AA  23119.82764068  .00002078  00000-0  14853-3 0  9996,2 53797  53.2164 284.2538 0000548  81.0028 279.1026 15.08849857 35158,6917.85,95.437,540.094,539.336,0.0
53797.0,STARLINK-4723,PAYLOAD,2023-04-30 14:56:25,15.08841531,4.51e-05,53.2157,280.686,159.1173,200.9838,0.0001326,1.824e-05,0.0,0 STARLINK-4723,1 53797U 22111AA  23120.62252293  .00001824  00000-0  13260-3 0  9997,2 53797  53.2157 280.6860 0000451 159.1173 200.9838 15.08841531 35276,6917.876,95.437,540.053,539.429,0.0
53797.0,STARLINK-4723,PAYLOAD,2023-05-01 10:01:04,15.08826551,3.6e-05,53.2174,277.1184,23.9295,336.1714,-0.00016698,-2.943e-05,0.0,0 STARLINK-4723,1 53797U 22111AA  23121.41741131 -.00002943  00000-0 -16698-3 0  9992,2 53797  53.2174 277.1184 0000360  23.9295 336.1714 15.08826551 36188,6917.921,95.438,540.036,539.537,0.0
53797.0,STARLINK-4723,PAYLOAD,2023-05-01 14:47:13,15.08832973,5.3e-05,53.2164,276.2266,59.8202,300.2842,-3.2243e-05,-8.01e-06,0.0,0 STARLINK-4723,1 53797U 22111AA  23121.61612919 -.00000801  00000-0 -32243-4 0  9991,2 53797  53.2164 276.2266 0000530  59.8202 300.2842 15.08832973 35428,6917.902,95.438,540.134,539.4,0.0
53797.0,STARLINK-4723,PAYLOAD,2023-05-01 19:33:22,15.08841078,6.38e-05,53.2164,275.3331,72.6336,287.4726,6.3252e-05,7.19e-06,0.0,0 STARLINK-4723,1 53797U 22111AA  23121.81484799  .00000719  00000-0  63252-4 0  9996,2 53797  53.2164 275.3331 0000638  72.6336 287.4726 15.08841078 36245,6917.877,95.437,540.183,539.301,0.0
